[Satellite]
VERSION=1.1
NAME=OSCAR 25
NICKNAME=OSCAR 25
TLE1=1 19419U 88074A   15053.15383539  .00000116  00000-0  18539-3 0  9999
TLE2=2 19419  89.9742  20.7163 0095529 341.2231 139.0155 13.42077460297242
